<?xml version="1.0" encoding="UTF-8"?>
<ndm xmlns:xsi="http://www.w3.org/2001/XMLSchema-instance"
    xsi:noNamespaceSchemaLocation="https://sanaregistry.org/r/ndmxml_unqualified/ndmxml-2.0.0-master-2.0.xsd">
    <omm id="CCSDS_OMM_VERS" version="2.0">
        <header>
            <CREATION_DATE />
            <ORIGINATOR />
        </header>
        <body>
            <segment>
                <metadata>
                    <OBJECT_NAME>BEIDOU-2 IGSO-7 (C16)</OBJECT_NAME>
                    <OBJECT_ID>2018-057A</OBJECT_ID>
                    <CENTER_NAME>EARTH</CENTER_NAME>
                    <REF_FRAME>TEME</REF_FRAME>
                    <TIME_SYSTEM>UTC</TIME_SYSTEM>
                    <MEAN_ELEMENT_THEORY>SGP4</MEAN_ELEMENT_THEORY>
                </metadata>
                <data>
                    <meanElements>
                        <EPOCH>2024-08-12T19:18:51.736608</EPOCH>
                        <MEAN_MOTION>1.00294807</MEAN_MOTION>
                        <ECCENTRICITY>.0078857</ECCENTRICITY>
                        <INCLINATION>55.1514</INCLINATION>
                        <RA_OF_ASC_NODE>168.8967</RA_OF_ASC_NODE>
                        <ARG_OF_PERICENTER>234.2514</ARG_OF_PERICENTER>
                        <MEAN_ANOMALY>319.1072</MEAN_ANOMALY>
                    </meanElements>
                    <tleParameters>
                        <EPHEMERIS_TYPE>0</EPHEMERIS_TYPE>
                        <CLASSIFICATION_TYPE>U</CLASSIFICATION_TYPE>
                        <NORAD_CAT_ID>43539</NORAD_CAT_ID>
                        <ELEMENT_SET_NO>999</ELEMENT_SET_NO>
                        <REV_AT_EPOCH>2238</REV_AT_EPOCH>
                        <BSTAR>0</BSTAR>
                        <MEAN_MOTION_DOT>-.11E-5</MEAN_MOTION_DOT>
                        <MEAN_MOTION_DDOT>0</MEAN_MOTION_DDOT>
                    </tleParameters>
                </data>
            </segment>
        </body>
    </omm>
    <omm id="CCSDS_OMM_VERS" version="2.0">
        <header>
            <CREATION_DATE />
            <ORIGINATOR />
        </header>
        <body>
            <segment>
                <metadata>
                    <OBJECT_NAME>GSAT0221 (GALILEO 25)</OBJECT_NAME>
                    <OBJECT_ID>2018-060A</OBJECT_ID>
                    <CENTER_NAME>EARTH</CENTER_NAME>
                    <REF_FRAME>TEME</REF_FRAME>
                    <TIME_SYSTEM>UTC</TIME_SYSTEM>
                    <MEAN_ELEMENT_THEORY>SGP4</MEAN_ELEMENT_THEORY>
                </metadata>
                <data>
                    <meanElements>
                        <EPOCH>2024-08-10T21:44:06.717120</EPOCH>
                        <MEAN_MOTION>1.70476204</MEAN_MOTION>
                        <ECCENTRICITY>.0002571</ECCENTRICITY>
                        <INCLINATION>57.3043</INCLINATION>
                        <RA_OF_ASC_NODE>359.9967</RA_OF_ASC_NODE>
                        <ARG_OF_PERICENTER>262.8215</ARG_OF_PERICENTER>
                        <MEAN_ANOMALY>97.1531</MEAN_ANOMALY>
                    </meanElements>
                    <tleParameters>
                        <EPHEMERIS_TYPE>0</EPHEMERIS_TYPE>
                        <CLASSIFICATION_TYPE>U</CLASSIFICATION_TYPE>
                        <NORAD_CAT_ID>43564</NORAD_CAT_ID>
                        <ELEMENT_SET_NO>999</ELEMENT_SET_NO>
                        <REV_AT_EPOCH>3765</REV_AT_EPOCH>
                        <BSTAR>0</BSTAR>
                        <MEAN_MOTION_DOT>-.86E-6</MEAN_MOTION_DOT>
                        <MEAN_MOTION_DDOT>0</MEAN_MOTION_DDOT>
                    </tleParameters>
                </data>
            </segment>
        </body>
    </omm>
    <omm id="CCSDS_OMM_VERS" version="2.0">
        <header>
            <CREATION_DATE />
            <ORIGINATOR />
        </header>
        <body>
            <segment>
                <metadata>
                    <OBJECT_NAME>GSAT0222 (GALILEO 26)</OBJECT_NAME>
                    <OBJECT_ID>2018-060B</OBJECT_ID>
                    <CENTER_NAME>EARTH</CENTER_NAME>
                    <REF_FRAME>TEME</REF_FRAME>
                    <TIME_SYSTEM>UTC</TIME_SYSTEM>
                    <MEAN_ELEMENT_THEORY>SGP4</MEAN_ELEMENT_THEORY>
                </metadata>
                <data>
                    <meanElements>
                        <EPOCH>2024-08-11T02:58:53.994720</EPOCH>
                        <MEAN_MOTION>1.70475955</MEAN_MOTION>
                        <ECCENTRICITY>.0003054</ECCENTRICITY>
                        <INCLINATION>57.3083</INCLINATION>
                        <RA_OF_ASC_NODE>359.9927</RA_OF_ASC_NODE>
                        <ARG_OF_PERICENTER>216.4880</ARG_OF_PERICENTER>
                        <MEAN_ANOMALY>143.4955</MEAN_ANOMALY>
                    </meanElements>
                    <tleParameters>
                        <EPHEMERIS_TYPE>0</EPHEMERIS_TYPE>
                        <CLASSIFICATION_TYPE>U</CLASSIFICATION_TYPE>
                        <NORAD_CAT_ID>43565</NORAD_CAT_ID>
                        <ELEMENT_SET_NO>999</ELEMENT_SET_NO>
                        <REV_AT_EPOCH>3770</REV_AT_EPOCH>
                        <BSTAR>0</BSTAR>
                        <MEAN_MOTION_DOT>-.85E-6</MEAN_MOTION_DOT>
                        <MEAN_MOTION_DDOT>0</MEAN_MOTION_DDOT>
                    </tleParameters>
                </data>
            </segment>
        </body>
    </omm>
    <omm id="CCSDS_OMM_VERS" version="2.0">
        <header>
            <CREATION_DATE />
            <ORIGINATOR />
        </header>
        <body>
            <segment>
                <metadata>
                    <OBJECT_NAME>GSAT0219 (GALILEO 23)</OBJECT_NAME>
                    <OBJECT_ID>2018-060C</OBJECT_ID>
                    <CENTER_NAME>EARTH</CENTER_NAME>
                    <REF_FRAME>TEME</REF_FRAME>
                    <TIME_SYSTEM>UTC</TIME_SYSTEM>
                    <MEAN_ELEMENT_THEORY>SGP4</MEAN_ELEMENT_THEORY>
                </metadata>
                <data>
                    <meanElements>
                        <EPOCH>2024-08-11T08:18:16.894368</EPOCH>
                        <MEAN_MOTION>1.70476250</MEAN_MOTION>
                        <ECCENTRICITY>.0001615</ECCENTRICITY>
                        <INCLINATION>57.3071</INCLINATION>
                        <RA_OF_ASC_NODE>359.9886</RA_OF_ASC_NODE>
                        <ARG_OF_PERICENTER>270.2152</ARG_OF_PERICENTER>
                        <MEAN_ANOMALY>89.7708</MEAN_ANOMALY>
                    </meanElements>
                    <tleParameters>
                        <EPHEMERIS_TYPE>0</EPHEMERIS_TYPE>
                        <CLASSIFICATION_TYPE>U</CLASSIFICATION_TYPE>
                        <NORAD_CAT_ID>43566</NORAD_CAT_ID>
                        <ELEMENT_SET_NO>999</ELEMENT_SET_NO>
                        <REV_AT_EPOCH>3768</REV_AT_EPOCH>
                        <BSTAR>0</BSTAR>
                        <MEAN_MOTION_DOT>-.85E-6</MEAN_MOTION_DOT>
                        <MEAN_MOTION_DDOT>0</MEAN_MOTION_DDOT>
                    </tleParameters>
                </data>
            </segment>
        </body>
    </omm>
    <omm id="CCSDS_OMM_VERS" version="2.0">
        <header>
            <CREATION_DATE />
            <ORIGINATOR />
        </header>
        <body>
            <segment>
                <metadata>
                    <OBJECT_NAME>GSAT0220 (GALILEO 24)</OBJECT_NAME>
                    <OBJECT_ID>2018-060D</OBJECT_ID>
                    <CENTER_NAME>EARTH</CENTER_NAME>
                    <REF_FRAME>TEME</REF_FRAME>
                    <TIME_SYSTEM>UTC</TIME_SYSTEM>
                    <MEAN_ELEMENT_THEORY>SGP4</MEAN_ELEMENT_THEORY>
                </metadata>
                <data>
                    <meanElements>
                        <EPOCH>2024-08-12T03:40:42.273120</EPOCH>
                        <MEAN_MOTION>1.70476142</MEAN_MOTION>
                        <ECCENTRICITY>.0001935</ECCENTRICITY>
                        <INCLINATION>57.3068</INCLINATION>
                        <RA_OF_ASC_NODE>359.9677</RA_OF_ASC_NODE>
                        <ARG_OF_PERICENTER>261.2027</ARG_OF_PERICENTER>
                        <MEAN_ANOMALY>98.7809</MEAN_ANOMALY>
                    </meanElements>
                    <tleParameters>
                        <EPHEMERIS_TYPE>0</EPHEMERIS_TYPE>
                        <CLASSIFICATION_TYPE>U</CLASSIFICATION_TYPE>
                        <NORAD_CAT_ID>43567</NORAD_CAT_ID>
                        <ELEMENT_SET_NO>999</ELEMENT_SET_NO>
                        <REV_AT_EPOCH>3768</REV_AT_EPOCH>
                        <BSTAR>0</BSTAR>
                        <MEAN_MOTION_DOT>-.82E-6</MEAN_MOTION_DOT>
                        <MEAN_MOTION_DDOT>0</MEAN_MOTION_DDOT>
                    </tleParameters>
                </data>
            </segment>
        </body>
    </omm>
    
</ndm>