BEIDOU-2 IGSO-7 (C16)   
1 43539U 18057A   24225.80476547 -.00000110  00000+0  00000+0 0  9992
2 43539  55.1514 168.8967 0078857 234.2514 319.1072  1.00294807 22387
GSAT0221 (GALILEO 25)   
1 43564U 18060A   24223.90563330 -.00000086  00000+0  00000+0 0  9992
2 43564  57.3043 359.9967 0002571 262.8215  97.1531  1.70476204 37653
GSAT0222 (GALILEO 26)   
1 43565U 18060B   24224.12423605 -.00000085  00000+0  00000+0 0  9997
2 43565  57.3083 359.9927 0003054 216.4880 143.4955  1.70475955 37707
GSAT0219 (GALILEO 23)   
1 43566U 18060C   24224.34602887 -.00000085  00000+0  00000+0 0  9993
2 43566  57.3071 359.9886 0001615 270.2152  89.7708  1.70476250 37684
GSAT0220 (GALILEO 24)   
1 43567U 18060D   24225.15326705 -.00000082  00000+0  00000+0 0  9993
2 43567  57.3068 359.9677 0001935 261.2027  98.7809  1.70476142 37687
